start=new Date('2022-12-16T00:00:00.000Z').valueOf();
sats=[{"NORAD_CAT_ID":"48109","REF_FRAME":"TEME","COUNTRY_CODE":"US","CENTER_NAME":"EARTH","GP_ID":"220528070","TLE_LINE2":"2 48109  53.0532  69.1920 0001981  39.3203 320.7930 15.06400159 94556","OBJECT_TYPE":"PAYLOAD","DECAY_DATE":null,"APOAPSIS":"548.585","FILE":"3702726","MEAN_MOTION_DOT":"0.00002477","REV_AT_EPOCH":"9455","EPHEMERIS_TYPE":"0","ARG_OF_PERICENTER":"39.3203","EPOCH":"2022-12-15T14:44:23.108640","BSTAR":"0.00018512000000","OBJECT_NAME":"STARLINK-2445","SEMIMAJOR_AXIS":"6925.348","ELEMENT_SET_NO":"999","MEAN_MOTION_DDOT":"0.0000000000000","SITE":"AFETR","RA_OF_ASC_NODE":"69.1920","PERIOD":"95.592","MEAN_ELEMENT_THEORY":"SGP4","PERIAPSIS":"545.841","INCLINATION":"53.0532","OBJECT_ID":"2021-027T","ECCENTRICITY":"0.00019810","TLE_LINE1":"1 48109U 21027T   22349.61415635  .00002477  00000-0  18512-3 0  9995","LAUNCH_DATE":"2021-04-07","MEAN_MOTION":"15.06400159","RCS_SIZE":"LARGE","TIME_SYSTEM":"UTC","CLASSIFICATION_TYPE":"U","MEAN_ANOMALY":"320.7930"},{"TIME_SYSTEM":"UTC","MEAN_ANOMALY":"310.4618","CLASSIFICATION_TYPE":"U","LAUNCH_DATE":"2021-04-07","TLE_LINE1":"1 48110U 21027U   22349.72197039  .00002957  00000-0  21733-3 0  9996","ECCENTRICITY":"0.00019100","OBJECT_ID":"2021-027U","RCS_SIZE":"LARGE","MEAN_MOTION":"15.06398325","INCLINATION":"53.0543","PERIAPSIS":"545.896","MEAN_ELEMENT_THEORY":"SGP4","MEAN_MOTION_DDOT":"0.0000000000000","SITE":"AFETR","PERIOD":"95.592","RA_OF_ASC_NODE":"58.7065","BSTAR":"0.00021733000000","OBJECT_NAME":"STARLINK-2447","EPOCH":"2022-12-15T17:19:38.241696","SEMIMAJOR_AXIS":"6925.354","ELEMENT_SET_NO":"999","MEAN_MOTION_DOT":"0.00002957","FILE":"3702726","DECAY_DATE":null,"APOAPSIS":"548.541","REV_AT_EPOCH":"9471","ARG_OF_PERICENTER":"49.6537","EPHEMERIS_TYPE":"0","OBJECT_TYPE":"PAYLOAD","GP_ID":"220526819","TLE_LINE2":"2 48110  53.0543  58.7065 0001910  49.6537 310.4618 15.06398325 94718","REF_FRAME":"TEME","NORAD_CAT_ID":"48110","CENTER_NAME":"EARTH","COUNTRY_CODE":"US"},{"CLASSIFICATION_TYPE":"U","MEAN_ANOMALY":"301.5456","TIME_SYSTEM":"UTC","MEAN_MOTION":"15.06401785","RCS_SIZE":"LARGE","OBJECT_ID":"2021-027V","ECCENTRICITY":"0.00015700","TLE_LINE1":"1 48111U 21027V   22349.58190069  .00002010  00000-0  15380-3 0  9998","LAUNCH_DATE":"2021-04-07","PERIAPSIS":"546.121","MEAN_ELEMENT_THEORY":"SGP4","INCLINATION":"53.0553","RA_OF_ASC_NODE":"59.3133","PERIOD":"95.592","SITE":"AFETR","MEAN_MOTION_DDOT":"0.0000000000000","ELEMENT_SET_NO":"999","SEMIMAJOR_AXIS":"6925.343","EPOCH":"2022-12-15T13:57:56.219616","OBJECT_NAME":"STARLINK-2448","BSTAR":"0.00015380000000","EPHEMERIS_TYPE":"0","ARG_OF_PERICENTER":"58.5687","REV_AT_EPOCH":"9469","APOAPSIS":"548.295","DECAY_DATE":null,"MEAN_MOTION_DOT":"0.00002010","FILE":"3702025","TLE_LINE2":"2 48111  53.0553  59.3133 0001570  58.5687 301.5456 15.06401785 94693","GP_ID":"220487712","OBJECT_TYPE":"PAYLOAD","COUNTRY_CODE":"US","CENTER_NAME":"EARTH","NORAD_CAT_ID":"48111","REF_FRAME":"TEME"},{"MEAN_ANOMALY":"322.9751","CLASSIFICATION_TYPE":"U","TIME_SYSTEM":"UTC","MEAN_MOTION":"15.06394508","RCS_SIZE":"LARGE","ECCENTRICITY":"0.00020330","TLE_LINE1":"1 48112U 21027W   22349.50866802  .00000734  00000-0  68216-4 0  9994","LAUNCH_DATE":"2021-04-07","OBJECT_ID":"2021-027W","INCLINATION":"53.0560","MEAN_ELEMENT_THEORY":"SGP4","PERIAPSIS":"545.822","PERIOD":"95.592","RA_OF_ASC_NODE":"74.8307","MEAN_MOTION_DDOT":"0.0000000000000","SITE":"AFETR","SEMIMAJOR_AXIS":"6925.365","ELEMENT_SET_NO":"999","BSTAR":"0.00006821600000","OBJECT_NAME":"STARLINK-2449","EPOCH":"2022-12-15T12:12:28.916928","REV_AT_EPOCH":"9446","ARG_OF_PERICENTER":"37.1378","EPHEMERIS_TYPE":"0","FILE":"3702025","MEAN_MOTION_DOT":"0.00000734","DECAY_DATE":null,"APOAPSIS":"548.638","OBJECT_TYPE":"PAYLOAD","GP_ID":"220485961","TLE_LINE2":"2 48112  53.0560  74.8307 0002033  37.1378 322.9751 15.06394508 94466","COUNTRY_CODE":"US","CENTER_NAME":"EARTH","REF_FRAME":"TEME","NORAD_CAT_ID":"48112"},{"MEAN_MOTION_DDOT":"0.0000000000000","SITE":"AFETR","RA_OF_ASC_NODE":"69.6611","PERIOD":"95.592","MEAN_ELEMENT_THEORY":"SGP4","PERIAPSIS":"546.066","INCLINATION":"53.0554","OBJECT_ID":"2021-027X","TLE_LINE1":"1 48113U 21027X   22349.51095090  .00001812  00000-0  14052-3 0  9995","LAUNCH_DATE":"2021-04-07","ECCENTRICITY":"0.00016510","MEAN_MOTION":"15.06401275","RCS_SIZE":"LARGE","TIME_SYSTEM":"UTC","CLASSIFICATION_TYPE":"U","MEAN_ANOMALY":"303.3389","NORAD_CAT_ID":"48113","REF_FRAME":"TEME","CENTER_NAME":"EARTH","COUNTRY_CODE":"US","GP_ID":"220486211","TLE_LINE2":"2 48113  53.0554  69.6611 0001651  56.7758 303.3389 15.06401275 94521","OBJECT_TYPE":"PAYLOAD","APOAPSIS":"548.353","DECAY_DATE":null,"MEAN_MOTION_DOT":"0.00001812","FILE":"3702025","REV_AT_EPOCH":"9452","ARG_OF_PERICENTER":"56.7758","EPHEMERIS_TYPE":"0","EPOCH":"2022-12-15T12:15:46.157760","BSTAR":"0.00014052000000","OBJECT_NAME":"STARLINK-2450","SEMIMAJOR_AXIS":"6925.345","ELEMENT_SET_NO":"999"},{"MEAN_ELEMENT_THEORY":"SGP4","PERIAPSIS":"546.237","INCLINATION":"53.0534","RA_OF_ASC_NODE":"63.3289","PERIOD":"95.592","SITE":"AFETR","MEAN_MOTION_DDOT":"0.0000000000000","CLASSIFICATION_TYPE":"U","MEAN_ANOMALY":"286.0683","TIME_SYSTEM":"UTC","MEAN_MOTION":"15.06402668","RCS_SIZE":"LARGE","OBJECT_ID":"2021-027Y","ECCENTRICITY":"0.00013980","TLE_LINE1":"1 48114U 21027Y   22349.80349746  .00003912  00000-0  28132-3 0  9995","LAUNCH_DATE":"2021-04-07","GP_ID":"220526319","TLE_LINE2":"2 48114  53.0534  63.3289 0001398  74.0460 286.0683 15.06402668 94658","OBJECT_TYPE":"PAYLOAD","CENTER_NAME":"EARTH","COUNTRY_CODE":"US","NORAD_CAT_ID":"48114","REF_FRAME":"TEME","SEMIMAJOR_AXIS":"6925.340","ELEMENT_SET_NO":"999","EPOCH":"2022-12-15T19:17:02.180544","BSTAR":"0.00028132000000","OBJECT_NAME":"STARLINK-2451","REV_AT_EPOCH":"9465","ARG_OF_PERICENTER":"74.0460","EPHEMERIS_TYPE":"0","DECAY_DATE":null,"APOAPSIS":"548.174","MEAN_MOTION_DOT":"0.00003912","FILE":"3702726"},{"NORAD_CAT_ID":"48115","REF_FRAME":"TEME","CENTER_NAME":"EARTH","COUNTRY_CODE":"US","GP_ID":"220487213","TLE_LINE2":"2 48115  53.0560  59.4058 0001668  56.9367 303.1782 15.06395578 94688","OBJECT_TYPE":"PAYLOAD","DECAY_DATE":null,"APOAPSIS":"548.382","MEAN_MOTION_DOT":"0.00000905","FILE":"3702025","ARG_OF_PERICENTER":"56.9367","EPHEMERIS_TYPE":"0","REV_AT_EPOCH":"9468","EPOCH":"2022-12-15T13:35:21.174720","OBJECT_NAME":"STARLINK-2452","BSTAR":"0.00007968200000","ELEMENT_SET_NO":"999","SEMIMAJOR_AXIS":"6925.362","MEAN_MOTION_DDOT":"0.0000000000000","SITE":"AFETR","PERIOD":"95.592","RA_OF_ASC_NODE":"59.4058","PERIAPSIS":"546.072","MEAN_ELEMENT_THEORY":"SGP4","INCLINATION":"53.0560","OBJECT_ID":"2021-027Z","TLE_LINE1":"1 48115U 21027Z   22349.56621730  .00000905  00000-0  79682-4 0  9991","ECCENTRICITY":"0.00016680","LAUNCH_DATE":"2021-04-07","MEAN_MOTION":"15.06395578","RCS_SIZE":"LARGE","TIME_SYSTEM":"UTC","CLASSIFICATION_TYPE":"U","MEAN_ANOMALY":"303.1782"},{"CENTER_NAME":"EARTH","COUNTRY_CODE":"US","REF_FRAME":"TEME","NORAD_CAT_ID":"48116","OBJECT_TYPE":"PAYLOAD","TLE_LINE2":"2 48116  53.0569  69.6615 0002030  34.8336 325.2785 15.06402469 94535","GP_ID":"220486461","EPHEMERIS_TYPE":"0","ARG_OF_PERICENTER":"34.8336","REV_AT_EPOCH":"9453","MEAN_MOTION_DOT":"0.00000472","FILE":"3702025","APOAPSIS":"548.612","DECAY_DATE":null,"ELEMENT_SET_NO":"999","SEMIMAJOR_AXIS":"6925.341","OBJECT_NAME":"STARLINK-2454","BSTAR":"0.00005058600000","EPOCH":"2022-12-15T12:10:27.185376","PERIOD":"95.592","RA_OF_ASC_NODE":"69.6615","SITE":"AFETR","MEAN_MOTION_DDOT":"0.0000000000000","INCLINATION":"53.0569","MEAN_ELEMENT_THEORY":"SGP4","PERIAPSIS":"545.800","RCS_SIZE":"LARGE","MEAN_MOTION":"15.06402469","LAUNCH_DATE":"2021-04-07","TLE_LINE1":"1 48116U 21027AA  22349.50725909  .00000472  00000-0  50586-4 0  9990","ECCENTRICITY":"0.00020300","OBJECT_ID":"2021-027AA","MEAN_ANOMALY":"325.2785","CLASSIFICATION_TYPE":"U","TIME_SYSTEM":"UTC"},{"INCLINATION":"53.0534","PERIAPSIS":"545.227","MEAN_ELEMENT_THEORY":"SGP4","PERIOD":"95.592","RA_OF_ASC_NODE":"49.4968","MEAN_MOTION_DDOT":"0.0000000000000","SITE":"AFETR","MEAN_ANOMALY":"334.5313","CLASSIFICATION_TYPE":"U","TIME_SYSTEM":"UTC","MEAN_MOTION":"15.06399148","RCS_SIZE":"LARGE","TLE_LINE1":"1 48117U 21027AB  22349.54502455  .00001174  00000-0  97733-4 0  9999","LAUNCH_DATE":"2021-04-07","ECCENTRICITY":"0.00028720","OBJECT_ID":"2021-027AB","OBJECT_TYPE":"PAYLOAD","TLE_LINE2":"2 48117  53.0534  49.4968 0002872  25.5817 334.5313 15.06399148 94821","GP_ID":"220486711","COUNTRY_CODE":"US","CENTER_NAME":"EARTH","REF_FRAME":"TEME","NORAD_CAT_ID":"48117","ELEMENT_SET_NO":"999","SEMIMAJOR_AXIS":"6925.351","OBJECT_NAME":"STARLINK-2455","BSTAR":"0.00009773300000","EPOCH":"2022-12-15T13:04:50.121120","EPHEMERIS_TYPE":"0","ARG_OF_PERICENTER":"25.5817","REV_AT_EPOCH":"9482","MEAN_MOTION_DOT":"0.00001174","FILE":"3702025","DECAY_DATE":null,"APOAPSIS":"549.205"},{"TIME_SYSTEM":"UTC","MEAN_ANOMALY":"317.5977","CLASSIFICATION_TYPE":"U","TLE_LINE1":"1 48118U 21027AC  22349.55702625  .00001822  00000-0  14118-3 0  9997","LAUNCH_DATE":"2021-04-07","ECCENTRICITY":"0.00017320","OBJECT_ID":"2021-027AC","MEAN_MOTION":"15.06399236","RCS_SIZE":"LARGE","INCLINATION":"53.0548","PERIAPSIS":"546.016","MEAN_ELEMENT_THEORY":"SGP4","SITE":"AFETR","MEAN_MOTION_DDOT":"0.0000000000000","RA_OF_ASC_NODE":"49.4489","PERIOD":"95.592","OBJECT_NAME":"STARLINK-2458","BSTAR":"0.00014118000000","EPOCH":"2022-12-15T13:22:07.068000","ELEMENT_SET_NO":"999","SEMIMAJOR_AXIS":"6925.351","MEAN_MOTION_DOT":"0.00001822","FILE":"3702025","DECAY_DATE":null,"APOAPSIS":"548.415","ARG_OF_PERICENTER":"42.5146","EPHEMERIS_TYPE":"0","REV_AT_EPOCH":"9482","OBJECT_TYPE":"PAYLOAD","GP_ID":"220487463","TLE_LINE2":"2 48118  53.0548  49.4489 0001732  42.5146 317.5977 15.06399236 94828","REF_FRAME":"TEME","NORAD_CAT_ID":"48118","COUNTRY_CODE":"US","CENTER_NAME":"EARTH"}];
